[{"OBJECT_NAME":"ONEWEB-0596","OBJECT_ID":"2022-166W","EPOCH":"2026-02-14T03:32:33.759744","MEAN_MOTION":13.21826111,"ECCENTRICITY":0.00016886,"INCLINATION":87.918,"RA_OF_ASC_NODE":268.5291,"ARG_OF_PERICENTER":90.9889,"MEAN_ANOMALY":269.1438,"EPHEMERIS_TYPE":0,"CLASSIFICATION_TYPE":"U","NORAD_CAT_ID":54662,"ELEMENT_SET_NO":999,"REV_AT_EPOCH":15528,"BSTAR":-8.5454971e-5,"MEAN_MOTION_DOT":-2.2e-7,"MEAN_MOTION_DDOT":0},{"OBJECT_NAME":"ONEWEB-0597","OBJECT_ID":"2022-166X","EPOCH":"2026-02-14T03:06:29.655360","MEAN_MOTION":13.21825167,"ECCENTRICITY":0.00016076,"INCLINATION":87.9178,"RA_OF_ASC_NODE":268.538,"ARG_OF_PERICENTER":81.6825,"MEAN_ANOMALY":278.4492,"EPHEMERIS_TYPE":0,"CLASSIFICATION_TYPE":"U","NORAD_CAT_ID":54663,"ELEMENT_SET_NO":999,"REV_AT_EPOCH":15528,"BSTAR":3.6620616e-5,"MEAN_MOTION_DOT":2.8e-7,"MEAN_MOTION_DDOT":0},{"OBJECT_NAME":"ONEWEB-0600","OBJECT_ID":"2022-166Y","EPOCH":"2026-02-14T02:40:26.942880","MEAN_MOTION":13.21821175,"ECCENTRICITY":0.00012801,"INCLINATION":87.9183,"RA_OF_ASC_NODE":268.532,"ARG_OF_PERICENTER":83.9768,"MEAN_ANOMALY":276.1512,"EPHEMERIS_TYPE":0,"CLASSIFICATION_TYPE":"U","NORAD_CAT_ID":54664,"ELEMENT_SET_NO":999,"REV_AT_EPOCH":15525,"BSTAR":0.0032786228,"MEAN_MOTION_DOT":1.367e-5,"MEAN_MOTION_DDOT":0},{"OBJECT_NAME":"ONEWEB-0601","OBJECT_ID":"2022-166Z","EPOCH":"2026-02-14T02:28:34.748544","MEAN_MOTION":13.21824472,"ECCENTRICITY":0.00015979,"INCLINATION":87.9181,"RA_OF_ASC_NODE":268.5514,"ARG_OF_PERICENTER":76.8264,"MEAN_ANOMALY":283.3048,"EPHEMERIS_TYPE":0,"CLASSIFICATION_TYPE":"U","NORAD_CAT_ID":54665,"ELEMENT_SET_NO":999,"REV_AT_EPOCH":15544,"BSTAR":0.00025778882,"MEAN_MOTION_DOT":1.19e-6,"MEAN_MOTION_DDOT":0},{"OBJECT_NAME":"ONEWEB-0602","OBJECT_ID":"2022-166AA","EPOCH":"2026-02-14T03:26:38.204736","MEAN_MOTION":13.21825796,"ECCENTRICITY":0.00012806,"INCLINATION":87.9179,"RA_OF_ASC_NODE":268.549,"ARG_OF_PERICENTER":86.8299,"MEAN_ANOMALY":273.2982,"EPHEMERIS_TYPE":0,"CLASSIFICATION_TYPE":"U","NORAD_CAT_ID":54666,"ELEMENT_SET_NO":999,"REV_AT_EPOCH":15529,"BSTAR":-0.00013909256,"MEAN_MOTION_DOT":-4.4e-7,"MEAN_MOTION_DDOT":0},{"OBJECT_NAME":"ONEWEB-0603","OBJECT_ID":"2022-166AB","EPOCH":"2026-02-14T03:34:55.648416","MEAN_MOTION":13.21825572,"ECCENTRICITY":0.00015528,"INCLINATION":87.9192,"RA_OF_ASC_NODE":268.4913,"ARG_OF_PERICENTER":83.3361,"MEAN_ANOMALY":276.7949,"EPHEMERIS_TYPE":0,"CLASSIFICATION_TYPE":"U","NORAD_CAT_ID":54667,"ELEMENT_SET_NO":999,"REV_AT_EPOCH":15522,"BSTAR":-0.00010001872,"MEAN_MOTION_DOT":-2.8e-7,"MEAN_MOTION_DDOT":0},{"OBJECT_NAME":"ONEWEB-0604","OBJECT_ID":"2022-166AC","EPOCH":"2026-02-14T03:18:20.559744","MEAN_MOTION":13.21825963,"ECCENTRICITY":0.00015915,"INCLINATION":87.9182,"RA_OF_ASC_NODE":268.5091,"ARG_OF_PERICENTER":89.0839,"MEAN_ANOMALY":271.0477,"EPHEMERIS_TYPE":0,"CLASSIFICATION_TYPE":"U","NORAD_CAT_ID":54668,"ELEMENT_SET_NO":999,"REV_AT_EPOCH":15518,"BSTAR":-0.00025854953,"MEAN_MOTION_DOT":-9.4e-7,"MEAN_MOTION_DDOT":0},{"OBJECT_NAME":"ONEWEB-0605","OBJECT_ID":"2022-166AD","EPOCH":"2026-02-14T03:08:52.395936","MEAN_MOTION":13.21826713,"ECCENTRICITY":0.00019379,"INCLINATION":87.9176,"RA_OF_ASC_NODE":268.5363,"ARG_OF_PERICENTER":70.7747,"MEAN_ANOMALY":289.3597,"EPHEMERIS_TYPE":0,"CLASSIFICATION_TYPE":"U","NORAD_CAT_ID":54669,"ELEMENT_SET_NO":999,"REV_AT_EPOCH":15525,"BSTAR":6.4340532e-5,"MEAN_MOTION_DOT":4.0e-7,"MEAN_MOTION_DDOT":0},{"OBJECT_NAME":"ONEWEB-0606","OBJECT_ID":"2022-166AE","EPOCH":"2026-02-14T03:39:40.230144","MEAN_MOTION":13.21824479,"ECCENTRICITY":0.00016808,"INCLINATION":87.9177,"RA_OF_ASC_NODE":268.5441,"ARG_OF_PERICENTER":90.1761,"MEAN_ANOMALY":269.9565,"EPHEMERIS_TYPE":0,"CLASSIFICATION_TYPE":"U","NORAD_CAT_ID":54670,"ELEMENT_SET_NO":999,"REV_AT_EPOCH":15531,"BSTAR":0.00010228963,"MEAN_MOTION_DOT":5.5e-7,"MEAN_MOTION_DDOT":0},{"OBJECT_NAME":"ONEWEB-0607","OBJECT_ID":"2022-166AF","EPOCH":"2026-02-14T02:52:16.903776","MEAN_MOTION":13.21824893,"ECCENTRICITY":0.00015188,"INCLINATION":87.9182,"RA_OF_ASC_NODE":268.5141,"ARG_OF_PERICENTER":80.654,"MEAN_ANOMALY":279.4765,"EPHEMERIS_TYPE":0,"CLASSIFICATION_TYPE":"U","NORAD_CAT_ID":54671,"ELEMENT_SET_NO":999,"REV_AT_EPOCH":15528,"BSTAR":9.670434e-6,"MEAN_MOTION_DOT":1.7e-7,"MEAN_MOTION_DDOT":0},{"OBJECT_NAME":"ONEWEB-0608","OBJECT_ID":"2022-166AG","EPOCH":"2026-02-14T03:01:45.935040","MEAN_MOTION":13.21826148,"ECCENTRICITY":0.00017106,"INCLINATION":87.9185,"RA_OF_ASC_NODE":268.5052,"ARG_OF_PERICENTER":68.6174,"MEAN_ANOMALY":291.5142,"EPHEMERIS_TYPE":0,"CLASSIFICATION_TYPE":"U","NORAD_CAT_ID":54672,"ELEMENT_SET_NO":999,"REV_AT_EPOCH":15529,"BSTAR":0.00029221602,"MEAN_MOTION_DOT":1.34e-6,"MEAN_MOTION_DDOT":0},{"OBJECT_NAME":"ONEWEB-0610","OBJECT_ID":"2022-166AH","EPOCH":"2026-02-14T02:33:19.588608","MEAN_MOTION":13.21826519,"ECCENTRICITY":0.00016477,"INCLINATION":87.9176,"RA_OF_ASC_NODE":268.5363,"ARG_OF_PERICENTER":66.2982,"MEAN_ANOMALY":293.8325,"EPHEMERIS_TYPE":0,"CLASSIFICATION_TYPE":"U","NORAD_CAT_ID":54673,"ELEMENT_SET_NO":999,"REV_AT_EPOCH":15519,"BSTAR":0.0003645432,"MEAN_MOTION_DOT":1.64e-6,"MEAN_MOTION_DDOT":0},{"OBJECT_NAME":"ONEWEB-0611","OBJECT_ID":"2022-166AJ","EPOCH":"2026-02-14T04:12:52.869888","MEAN_MOTION":13.21812894,"ECCENTRICITY":0.00016265,"INCLINATION":87.9175,"RA_OF_ASC_NODE":268.5192,"ARG_OF_PERICENTER":89.508,"MEAN_ANOMALY":270.624,"EPHEMERIS_TYPE":0,"CLASSIFICATION_TYPE":"U","NORAD_CAT_ID":54674,"ELEMENT_SET_NO":999,"REV_AT_EPOCH":15519,"BSTAR":-0.003147332,"MEAN_MOTION_DOT":-1.286e-5,"MEAN_MOTION_DDOT":0},{"OBJECT_NAME":"ONEWEB-0612","OBJECT_ID":"2022-166AK","EPOCH":"2026-02-14T02:42:48.744288","MEAN_MOTION":13.21824979,"ECCENTRICITY":0.00015743,"INCLINATION":87.9189,"RA_OF_ASC_NODE":268.513,"ARG_OF_PERICENTER":80.5392,"MEAN_ANOMALY":279.592,"EPHEMERIS_TYPE":0,"CLASSIFICATION_TYPE":"U","NORAD_CAT_ID":54675,"ELEMENT_SET_NO":999,"REV_AT_EPOCH":15517,"BSTAR":6.7301449e-5,"MEAN_MOTION_DOT":4.1e-7,"MEAN_MOTION_DDOT":0},{"OBJECT_NAME":"ONEWEB-0615","OBJECT_ID":"2022-166AL","EPOCH":"2026-02-14T04:03:21.950784","MEAN_MOTION":13.21824281,"ECCENTRICITY":0.00015893,"INCLINATION":87.9182,"RA_OF_ASC_NODE":268.5278,"ARG_OF_PERICENTER":84.9292,"MEAN_ANOMALY":275.2023,"EPHEMERIS_TYPE":0,"CLASSIFICATION_TYPE":"U","NORAD_CAT_ID":54676,"ELEMENT_SET_NO":999,"REV_AT_EPOCH":15519,"BSTAR":7.2237346e-5,"MEAN_MOTION_DOT":4.3e-7,"MEAN_MOTION_DDOT":0},{"OBJECT_NAME":"ONEWEB-0655","OBJECT_ID":"2022-166AM","EPOCH":"2026-02-14T03:27:49.291200","MEAN_MOTION":13.21824483,"ECCENTRICITY":0.00013428,"INCLINATION":87.9182,"RA_OF_ASC_NODE":268.5352,"ARG_OF_PERICENTER":82.2489,"MEAN_ANOMALY":277.8798,"EPHEMERIS_TYPE":0,"CLASSIFICATION_TYPE":"U","NORAD_CAT_ID":54677,"ELEMENT_SET_NO":999,"REV_AT_EPOCH":15518,"BSTAR":-0.00010506466,"MEAN_MOTION_DOT":-3.0e-7,"MEAN_MOTION_DDOT":0}]
