ONEWEB-0596             
1 54662U 22166W   26045.14761296 -.00000022  00000+0 -85455-4 0  9999
2 54662  87.9180 268.5291 0001688  90.9889 269.1438 13.21826111155287
ONEWEB-0597             
1 54663U 22166X   26045.12950990  .00000028  00000+0  36621-4 0  9994
2 54663  87.9178 268.5380 0001607  81.6825 278.4492 13.21825167155285
ONEWEB-0600             
1 54664U 22166Y   26045.11142295  .00001367  00000+0  32786-2 0  9998
2 54664  87.9183 268.5320 0001280  83.9768 276.1512 13.21821175155254
ONEWEB-0601             
1 54665U 22166Z   26045.10317996  .00000119  00000+0  25779-3 0  9999
2 54665  87.9181 268.5514 0001597  76.8264 283.3048 13.21824472155449
ONEWEB-0602             
1 54666U 22166AA  26045.14349774 -.00000044  00000+0 -13909-3 0  9994
2 54666  87.9179 268.5490 0001280  86.8299 273.2982 13.21825796155296
ONEWEB-0603             
1 54667U 22166AB  26045.14925519 -.00000028  00000+0 -10002-3 0  9995
2 54667  87.9192 268.4913 0001552  83.3361 276.7949 13.21825572155221
ONEWEB-0604             
1 54668U 22166AC  26045.13773796 -.00000094  00000+0 -25855-3 0  9998
2 54668  87.9182 268.5091 0001591  89.0839 271.0477 13.21825963155188
ONEWEB-0605             
1 54669U 22166AD  26045.13116199  .00000040  00000+0  64341-4 0  9990
2 54669  87.9176 268.5363 0001937  70.7747 289.3597 13.21826713155250
ONEWEB-0606             
1 54670U 22166AE  26045.15254896  .00000055  00000+0  10229-3 0  9992
2 54670  87.9177 268.5441 0001680  90.1761 269.9565 13.21824479155310
ONEWEB-0607             
1 54671U 22166AF  26045.11964009  .00000017  00000+0  96704-5 0  9995
2 54671  87.9182 268.5141 0001518  80.6540 279.4765 13.21824893155287
ONEWEB-0608             
1 54672U 22166AG  26045.12622610  .00000134  00000+0  29222-3 0  9995
2 54672  87.9185 268.5052 0001710  68.6174 291.5142 13.21826148155295
ONEWEB-0610             
1 54673U 22166AH  26045.10647672  .00000164  00000+0  36454-3 0  9997
2 54673  87.9176 268.5363 0001647  66.2982 293.8325 13.21826519155190
ONEWEB-0611             
1 54674U 22166AJ  26045.17561192 -.00001286  00000+0 -31473-2 0  9990
2 54674  87.9175 268.5192 0001626  89.5080 270.6240 13.21812894155194
ONEWEB-0612             
1 54675U 22166AK  26045.11306417  .00000041  00000+0  67301-4 0  9999
2 54675  87.9189 268.5130 0001574  80.5392 279.5920 13.21824979155179
ONEWEB-0615             
1 54676U 22166AL  26045.16900406  .00000043  00000+0  72237-4 0  9999
2 54676  87.9182 268.5278 0001589  84.9292 275.2023 13.21824281155194
ONEWEB-0655             
1 54677U 22166AM  26045.14432050 -.00000030  00000+0 -10506-3 0  9991
2 54677  87.9182 268.5352 0001342  82.2489 277.8798 13.21824483155184
